IRIDIUM 26              
1 24903U 97043A   25343.21814720  .00000686  00000+0  22342-3 0  9998
2 24903  86.3964  37.0433 0002030  98.3168 261.8260 14.37323609481888
IRIDIUM 22              
1 24907U 97043E   25343.43288507  .00000609  00000+0  20258-3 0  9993
2 24907  86.3967  40.6432 0002217  96.4945 263.6505 14.36118631481926
DUMMY MASS 1            
1 24925U 97048A   25343.44140376  .00000793  00000+0  85102-4 0  9994
2 24925  86.3348  54.2329 0004595 232.3155 127.7654 14.87178969531174
DUMMY MASS 2            
1 24926U 97048B   25343.23093245  .00000790  00000+0  85353-4 0  9999
2 24926  86.3348  55.9705 0005093 252.0340 108.0330 14.86929277530919
IRIDIUM 29              
1 24944U 97051A   25343.53155064  .00000825  00000+0  27364-3 0  9990
2 24944  86.3955  70.2905 0002279  93.1933 266.9525 14.36659028478448
IRIDIUM 33              
1 24946U 97051C   25343.28979044  .00000639  00000+0  21762-3 0  9995
2 24946  86.3870  69.6697 0006648 213.1217 146.9564 14.35033739477857
IRIDIUM 28              
1 24948U 97051E   25343.53377365  .00000761  00000+0  24763-3 0  9993
2 24948  86.3960  67.7048 0001796 108.0932 252.0462 14.37558952479032
IRIDIUM 36              
1 24967U 97056C   25343.40017003  .00000854  00000+0  27744-3 0  9990
2 24967  86.3957  99.3886 0002027 101.7439 258.3987 14.37779684477395
